[{"OBJECT_NAME":"STARLINK-3389","OBJECT_ID":"2022-005W","EPOCH":"2026-03-09T21:26:09.889728","MEAN_MOTION":15.08838248,"ECCENTRICITY":0.00011777,"INCLINATION":53.2175,"RA_OF_ASC_NODE":298.2095,"ARG_OF_PERICENTER":88.651,"MEAN_ANOMALY":271.4617,"EPHEMERIS_TYPE":0,"CLASSIFICATION_TYPE":"U","NORAD_CAT_ID":51124,"ELEMENT_SET_NO":999,"REV_AT_EPOCH":22877,"BSTAR":-7.39665e-7,"MEAN_MOTION_DOT":-3.0e-6,"MEAN_MOTION_DDOT":0},{"OBJECT_NAME":"PSLV R\/B","OBJECT_ID":"2010-035F","EPOCH":"2026-03-09T21:32:02.806944","MEAN_MOTION":15.11637156,"ECCENTRICITY":0.00120112,"INCLINATION":97.9796,"RA_OF_ASC_NODE":355.2302,"ARG_OF_PERICENTER":197.9598,"MEAN_ANOMALY":162.1208,"EPHEMERIS_TYPE":0,"CLASSIFICATION_TYPE":"U","NORAD_CAT_ID":36800,"ELEMENT_SET_NO":999,"REV_AT_EPOCH":85407,"BSTAR":0.00037264097,"MEAN_MOTION_DOT":6.275e-5,"MEAN_MOTION_DDOT":0}]
